NSS-11                  
1 26554U 00059A   26189.60392277  .00000038  00000+0  00000+0 0  9997
2 26554   2.1786  81.1377 0002825  32.2407 206.5890  1.00272300 41505
AMC-6                   
1 26580U 00067A   26189.54402749  .00000103  00000+0  00000+0 0  9997
2 26580   0.2034  83.5925 0003874  36.4229 227.2903  1.00270365 94105
AMC-15                  
1 28446U 04041A   26189.26490433 -.00000074  00000+0  00000+0 0  9990
2 28446   0.0215 326.5677 0002286 152.7491 157.2154  1.00271238 79518
NSS-10                  
1 28526U 05003A   26189.49208337 -.00000242  00000+0  00000+0 0  9990
2 28526   6.4996  70.1927 0002785  41.9858 313.9625  1.00270539 53365
ASTRA 1KR               
1 29055U 06012A   26189.50326343  .00000134  00000+0  00000+0 0  9998
2 29055   0.5256  83.2007 0003347  21.0387  22.3941  1.00273192 45914
ASTRA 1L                
1 31306U 07016A   26189.35212312 -.00000171  00000+0  00000+0 0  9990
2 31306   1.3731  81.4133 0005381  28.5815 278.5690  1.00269959 45193
ASTRA 4A                
1 32299U 07057A   26189.35792983  .00000047  00000+0  00000+0 0  9995
2 32299   0.0416 286.4694 0002343 184.5654 308.9456  1.00269673 51850
ASTRA 1M                
1 33436U 08057A   26189.50335009  .00000135  00000+0  00000+0 0  9997
2 33436   0.3480  82.7211 0004843  38.9855   5.3513  1.00273432 45956
NSS-9                   
1 33749U 09008A   26189.58170006  .00000085  00000+0  00000+0 0  9997
2 33749   1.3137  82.4520 0002006  14.1816 222.3823  1.00269942 63737
SES-7 (PROTOSTAR 2)     
1 34941U 09027A   26189.59226236 -.00000330  00000+0  00000+0 0  9995
2 34941   0.0142  46.1147 0001302 147.3243  54.5609  1.00270049 62845
NSS-12                  
1 36032U 09058A   26189.51080346  .00000086  00000+0  00000+0 0  9991
2 36032   0.0505 281.0256 0004263 152.0102  94.3312  1.00273314 61130
SES-1                   
1 36516U 10016A   26189.55078752 -.00000099  00000+0  00000+0 0  9991
2 36516   0.0297 300.2802 0002557 165.0627 278.4375  1.00270723 59240
ASTRA 3B                
1 36581U 10021A   26189.26156008  .00000151  00000+0  00000+0 0  9996
2 36581   1.5229  83.2999 0004262  19.7288 300.8432  1.00273818 59074
SES-3                   
1 37748U 11035A   26189.55044086 -.00000088  00000+0  00000+0 0  9992
2 37748   1.3788  82.8567 0002040  22.4788 276.3341  1.00271341 54803
ASTRA 1N                
1 37775U 11041A   26189.50335009  .00000135  00000+0  00000+0 0  9994
2 37775   0.0699  28.4565 0005740  82.3257  16.1136  1.00274857 44749
SES-2                   
1 37809U 11049A   26189.55356087 -.00000181  00000+0  00000+0 0  9996
2 37809   0.1101  92.0806 0002717  15.7737 290.9322  1.00270629 54175
QUETZSAT 1              
1 37826U 11054A   26189.55555421 -.00000227  00000+0  00000+0 0  9995
2 37826   0.0168 327.4397 0002737 150.5282 291.5346  1.00270048 50085
SES-4                   
1 38087U 12007A   26189.35255647 -.00000154  00000+0  00000+0 0  9998
2 38087   0.0201  52.9893 0002424  53.7891 284.4441  1.00269859 52433
SES-5                   
1 38652U 12036A   26189.29628022  .00000049  00000+0  00000+0 0  9994
2 38652   0.0466 317.2363 0001928 151.7726 288.8888  1.00271613 44667
ASTRA 2F                
1 38778U 12051A   26189.50482343  .00000165  00000+0  00000+0 0  9997
2 38778   0.0588 247.2850 0002751 295.2466 313.8937  1.00274412 41351
SES-6                   
1 39172U 13026A   26189.49147670 -.00000246  00000+0  00000+0 0  9999
2 39172   0.0157   8.7478 0002413  94.4653 319.6556  1.00269966 47939
O3B FM5                 
1 39188U 13031A   26189.22837935 -.00000009  00000+0  00000+0 0  9990
2 39188   0.0959 337.4613 0002842 115.3151 267.2568  5.00115589238096
O3B FM4                 
1 39189U 13031B   26189.34782129 -.00000009  00000+0  00000+0 0  9998
2 39189   0.0407 347.0450 0004579 107.1398 265.8682  5.00115339238108
O3B FM2                 
1 39190U 13031C   26189.41329767 -.00000010  00000+0  00000+0 0  9995
2 39190   0.0354 343.0427 0002724 120.1390 256.8493  5.00116031238164
O3B PFM                 
1 39191U 13031D   26189.42741843 -.00000010  00000+0  00000+0 0  9990
2 39191   0.0668 347.7170 0005313 109.0308 263.3133  5.00115999237739
ASTRA 2E                
1 39285U 13056A   26189.50517010  .00000165  00000+0  00000+0 0  9997
2 39285   0.0662 324.7504 0002566 151.1232  20.9277  1.00270497 46638
SES-8                   
1 39460U 13071A   26189.58966235 -.00000254  00000+0  00000+0 0  9994
2 39460   0.0533 264.2894 0002735 204.7534 124.7733  1.00270112 44641
ASTRA 5B                
1 39617U 14011B   26189.50404343  .00000152  00000+0  00000+0 0  9998
2 39617   0.0663 310.2084 0001864 161.6025  19.5934  1.00271107 44885
O3B FM3                 
1 40079U 14038A   26189.09432406 -.00000009  00000+0  00000+0 0  9998
2 40079   0.0477 352.8578 0002569 168.1361 199.0163  5.00115700214090
O3B FM7                 
1 40080U 14038B   26189.44022680 -.00000010  00000+0  00000+0 0  9990
2 40080   0.0455 344.0020 0003642  92.8379 283.2014  5.00115667218949
O3B FM6                 
1 40081U 14038C   26189.46720148 -.00000010  00000+0  00000+0 0  9997
2 40081   0.0463 349.8486 0002612 113.7374 256.4437  5.00115724218891
O3B FM8                 
1 40082U 14038D   26189.32055104 -.00000009  00000+0  00000+0 0  9994
2 40082   0.0461 348.5098 0002770 119.0937 252.4274  5.00116076219004
O3B FM10                
1 40348U 14083A   26187.34891343 -.00000010  00000+0  00000+0 0  9994
2 40348   0.0418 347.3315 0004555 104.5549 268.1661  5.00115379210854
O3B FM11                
1 40349U 14083B   26189.36044964 -.00000010  00000+0  00000+0 0  9998
2 40349   0.0552 351.9600 0002570  98.1036 269.9665  5.00115508210976
O3B FM12                
1 40350U 14083C   26189.38744489 -.00000010  00000+0  00000+0 0  9991
2 40350   0.0543 352.1670 0002501 111.4391 256.4223  5.00115947210984
O3B FM9                 
1 40351U 14083D   26189.21438225 -.00000009  00000+0  00000+0 0  9990
2 40351   0.0560 351.0896 0002681 113.6393 255.3015  5.00115990211118
ASTRA 2G                
1 40364U 14089A   26189.50482343  .00000165  00000+0  00000+0 0  9994
2 40364   0.0458   6.9492 0004472  69.4115  60.0282  1.00272224 42182
SES-9                   
1 41380U 16013A   26189.37838325 -.00000330  00000+0  00000+0 0  9997
2 41380   0.0166 325.7562 0002255 137.2222  67.8728  1.00271207 37653
SES-10                  
1 42432U 17017A   26189.27244436 -.00000258  00000+0  00000+0 0  9993
2 42432   0.0173  42.7837 0002697  70.3474 204.2758  1.00269070 33962
SES-15                  
1 42709U 17026A   26189.54524082  .00000075  00000+0  00000+0 0  9994
2 42709   0.0249 326.7931 0000443 132.4110 254.4170  1.00267138  7641
SES-11 (ECHOSTAR 105)   
1 42967U 17063A   26189.55000752 -.00000074  00000+0  00000+0 0  9995
2 42967   0.0141  11.8020 0002636  98.3310 269.4189  1.00270872 31931
SES-14                  
1 43175U 18012B   26189.13864319 -.00000263  00000+0  00000+0 0  9993
2 43175   0.0141  30.9527 0001039  86.1928 171.3591  1.00270707  7234
O3B FM15                
1 43231U 18024A   26189.48108709 -.00000010  00000+0  00000+0 0  9991
2 43231   0.0524   0.1714 0002600 106.1663 253.6915  5.00115774152087
O3B FM16                
1 43232U 18024B   26188.93374047 -.00000009  00000+0  00000+0 0  9999
2 43232   0.0525   4.7226 0002620  98.9541 256.3531  5.00115988151981
O3B FM14                
1 43233U 18024C   26189.37433511 -.00000010  00000+0  00000+0 0  9993
2 43233   0.0514   5.7421 0002878 100.0388 254.2515  5.00115750152018
O3B FM13                
1 43234U 18024D   26188.24086837 -.00000009  00000+0  00000+0 0  9992
2 43234   0.0523 325.0263 0002390  87.3738 307.6221  5.00115686152066
SES-12                  
1 43488U 18049A   26189.44706005 -.00000255  00000+0  00000+0 0  9992
2 43488   0.0108   8.4335 0000742 254.6424 279.2653  1.00271530 29634
O3B FM20                
1 44112U 19020A   26189.40039865 -.00000010  00000+0  00000+0 0  9995
2 44112   0.0524 356.4763 0002374 102.6956 260.8555  5.00115578132632
O3B FM19                
1 44113U 19020B   26189.22751754 -.00000009  00000+0  00000+0 0  9992
2 44113   0.0743 335.0245 0003766 112.1003 272.9190  5.00115960132497
O3B FM17                
1 44114U 19020C   26188.50813149 -.00000009  00000+0  00000+0 0  9990
2 44114   0.0357  10.3853 0002577  94.1171 255.5267  5.00115604132544
O3B FM18                
1 44115U 19020D   26188.25458034 -.00000009  00000+0  00000+0 0  9991
2 44115   0.0528 356.4523 0002759 109.3073 254.2714  5.00115386132657
SES-17                  
1 49332U 21095A   26189.55754756 -.00000257  00000+0  00000+0 0  9991
2 49332   0.0228  43.9386 0000903  70.2570 305.9302  1.00268857 18065
SES-22                  
1 52933U 22071A   26187.76106745  .00000119  00000+0  00000+0 0  9993
2 52933   0.0347 275.9106 0001018 193.2307 310.5886  1.00273213  7718
SES-20                  
1 53960U 22123A   26189.55035419 -.00000086  00000+0  00000+0 0  9994
2 53960   0.0180  65.0487 0001885  27.0673 289.4083  1.00269683 13745
SES-21                  
1 53961U 22123B   26188.97454119  .00000000  00000+0  00000+0 0  9997
2 53961   0.0393  30.4325 0001053  73.3313  42.0765  1.00268312  7427
O3B MPOWER F1           
1 54755U 22174A   26189.24683354 -.00000009  00000+0  00000+0 0  9991
2 54755   0.0499 339.7784 0006570 138.6356  88.5216  5.00114815 66413
O3B MPOWER F2           
1 54756U 22174B   26189.29857376 -.00000009  00000+0  00000+0 0  9994
2 54756   0.0458 339.9412 0005813 122.0524 258.0723  5.00114905 66509
SES-18                  
1 55970U 23038A   26189.55044086 -.00000086  00000+0  00000+0 0  9993
2 55970   0.0534 265.3567 0000558 298.2857 177.9258  1.00271658 12319
SES-19                  
1 55971U 23038B   26189.54411416  .00000102  00000+0  00000+0 0  9996
2 55971   0.0323 292.3112 0001713 185.0489 230.1153  1.00271767 12306
O3B MPOWER F4           
1 56367U 23059A   26189.36280935 -.00000010  00000+0  00000+0 0  9998
2 56367   0.0630 351.0398 0007719 119.9548 249.0887  5.00115462 59666
O3B MPOWER F3           
1 56368U 23059B   26189.39595489 -.00000010  00000+0  00000+0 0  9995
2 56368   0.0637 350.3841 0006682 113.7717 255.9192  5.00116465 55796
O3B MPOWER F5           
1 58346U 23175A   26189.29705494 -.00000009  00000+0  00000+0 0  9998
2 58346   0.0514   9.7066 0005416 115.2666 235.0783  5.00115895 50499
O3B MPOWER F6           
1 58347U 23175B   26189.39752959 -.00000010  00000+0  00000+0 0  9990
2 58347   0.0535   1.4475 0004435 103.2504 255.3518  5.00115789 49417
ASTRA 1P (SES-24)       
1 60086U 24115A   26189.07560216  .00000134  00000+0  00000+0 0  9992
2 60086   0.0600 333.7290 0001174 264.8187  93.9121  1.00263396  7400
O3B MPOWER F7           
1 62362U 24244A   26189.46392441 -.00000010  00000+0  00000+0 0  9994
2 62362   0.0664 343.9747 0005966 118.5285 257.5643  5.00115318 27599
O3B MPOWER F8           
1 62363U 24244B   26189.43087058 -.00000010  00000+0  00000+0 0  9997
2 62363   0.0142 355.6703 0005809 100.2732 264.1233  5.00115065 21934
O3B MPOWER F9           
1 64866U 25153A   26189.36426210 -.00000010  00000+0  00000+0 0  9996
2 64866   0.0606   6.5644 0006649 119.4253 234.0726  5.00115654 20620
O3B MPOWER F10          
1 64867U 25153B   26189.33030284 -.00000010  00000+0  00000+0 0  9996
2 64867   0.0578   2.9591 0002263 245.3951 111.6222  5.00114883 23089
